CARTOSAT-2F             
1 43111U 18004A   20196.13073877  .00000191  00000-0  12207-4 0  9994
2 43111  97.3833 255.2159 0004045 343.8350  99.8674 15.19279299138765
PSLV DEB                
1 43112U 18004B   20195.22629685  .00001634  00000-0  66461-4 0  9992
2 43112  97.4512 267.2273 0008207 305.5935  54.4538 15.25961342139029
LEO VANTAGE 1           
1 43113U 18004C   20195.59594182 -.00000051  00000-0 -91521-5 0  9996
2 43113  99.3728 251.2502 0005392   8.4039 351.7197 13.69842163125747
ICEYE-X1                
1 43114U 18004D   20195.65761058  .00000586  00000-0  27595-4 0  9992
2 43114  97.4436 265.5941 0008654 317.1339  42.9222 15.23418311138989
CARBONITE 2             
1 43115U 18004E   20195.93015603  .00000252  00000-0  13878-4 0  9991
2 43115  97.4422 265.3218 0008915 319.4807  40.5765 15.22647622139003
INS-1C                  
1 43116U 18004F   20196.02114752  .00000693  00000-0  31644-4 0  9998
2 43116  97.4511 267.2320 0008196 320.6179  39.4461 15.23918793139084
CORVUS BC3              
1 43118U 18004H   20195.63534253  .00000456  00000-0  22155-4 0  9992
2 43118  97.4427 265.6936 0009292 328.9266  31.1420 15.23398830138989
FLOCK 3P'-3             
1 43119U 18004J   20195.50658455  .00000515  00000-0  24618-4 0  9992
2 43119  97.4496 266.0221 0009067 330.1758  29.8961 15.23420857138966
FLOCK 3P'-2             
1 43120U 18004K   20195.42580819  .00000434  00000-0  21346-4 0  9998
2 43120  97.4500 265.8447 0009057 330.8846  29.1885 15.23231316138941
FLOCK 3P'-1             
1 43121U 18004L   20195.61796944  .00001231  00000-0  52636-4 0  9990
2 43121  97.4498 266.7760 0008612 327.3774  32.6931 15.24732569138952
FLOCK 3P'-4             
1 43122U 18004M   20195.88434534  .00000431  00000-0  21211-4 0  9990
2 43122  97.4508 266.3576 0008900 331.3583  28.7163 15.23233743139019
LEMUR-2-MCCAFFERTY      
1 43123U 18004N   20196.18406687  .00001131  00000-0  47626-4 0  9999
2 43123  97.4481 268.1777 0008309 324.3660  35.7022 15.25434469139162
LEMUR-2-PETERWEBSTER    
1 43124U 18004P   20195.84943846  .00001005  00000-0  42703-4 0  9996
2 43124  97.4483 267.7282 0008356 324.2584  35.8094 15.25356417139118
LEMUR-2-BROWNCOW        
1 43125U 18004Q   20195.84245012  .00001275  00000-0  52738-4 0  9995
2 43125  97.4495 268.0524 0008119 325.2698  34.8009 15.25793091139139
LEMUR-2-DAVEWILSON      
1 43126U 18004R   20195.63129443  .00001308  00000-0  54217-4 0  9993
2 43126  97.4494 267.7336 0008112 326.3651  33.7071 15.25668875139093
DEMOSAT 2               
1 43127U 18004S   20195.29207465  .00000478  00000-0  22886-4 0  9991
2 43127  97.4438 265.7620 0008749 332.5757  27.5017 15.23658637138956
MICROSAT-TD             
1 43128U 18004T   20195.59492232  .00026608  00000-0  12412-3 0  9999
2 43128  96.7482 247.6335 0007552  72.6405 287.5691 15.83252082143528
ARKYD 6A                
1 43130U 18004V   20195.47349946  .00000624  00000-0  28759-4 0  9994
2 43130  97.4454 266.2410 0008707 331.7578  28.3186 15.23953362138990
MICROMAS-2A             
1 43131U 18004W   20195.62617304  .00001133  00000-0  47808-4 0  9990
2 43131  97.4477 267.5094 0008012 328.3527  31.7229 15.25358948139081
PICSAT                  
1 43132U 18004X   20195.83289749  .00000791  00000-0  35109-4 0  9992
2 43132  97.4461 267.0117 0008493 329.9256  30.1493 15.24469336139073
CNUSAIL-1               
1 43133U 18004Y   20195.42095826  .00000514  00000-0  24256-4 0  9993
2 43133  97.4447 266.1105 0008610 332.7467  27.3317 15.23859424138984
OBJECT Z                
1 43134U 18004Z   20195.28998858  .00000643  00000-0  29271-4 0  9990
2 43134  97.4456 266.3445 0008413 333.1446  26.9355 15.24248463138980
OBJECT AA               
1 43135U 18004AA  20195.65841439  .00000911  00000-0  39654-4 0  9998
2 43135  97.4465 267.1010 0008285 331.2105  28.8675 15.24771147139062
OBJECT AB               
1 43136U 18004AB  20195.88932529  .00001033  00000-0  44180-4 0  9991
2 43136  97.4478 267.6217 0008019 330.2635  29.8146 15.25078415139112
FOX-1D (AO-92)          
1 43137U 18004AC  20195.87645532  .00000604  00000-0  27750-4 0  9993
2 43137  97.4446 266.8578 0008180 332.6240  27.4565 15.24164168139070
STEP CUBE LAB           
1 43138U 18004AD  20195.95130992  .00000995  00000-0  42542-4 0  9991
2 43138  97.4475 267.8280 0007831 331.2447  28.8358 15.25183877139131
SPACEBEE-4              
1 43139U 18004AE  20195.63768669  .00001690  00000-0  67191-4 0  9995
2 43139  97.4513 268.7662 0007329 329.6668  30.4146 15.26681292139158
SPACEBEE-3              
1 43140U 18004AF  20195.63200199  .00002127  00000-0  81587-4 0  9997
2 43140  97.4530 269.4883 0006904 327.8255  32.2562 15.27604758139191
SPACEBEE-2              
1 43141U 18004AG  20196.19569472  .00002562  00000-0  96751-4 0  9994
2 43141  97.4540 270.3277 0006753 324.5119  35.5670 15.27920702139293
SPACEBEE-1              
1 43142U 18004AH  20195.30596788  .00002363  00000-0  88501-4 0  9990
2 43142  97.4544 269.7138 0006780 327.8406  32.2419 15.28281445139167
CICERO 7                
1 43143U 18004AJ  20195.75791295  .00001046  00000-0  44298-4 0  9992
2 43143  97.4456 267.8170 0006557 340.8909  19.2082 15.25391032139128
TYVAK-61C               
1 43144U 18004AK  20195.65488905  .00001045  00000-0  43576-4 0  9990
2 43144  97.4490 268.4494 0007152 345.0407  15.0619 15.25917809139143
